[{"OBJECT_NAME":"STARLINK-1911","OBJECT_ID":"2020-074L","EPOCH":"2026-03-10T00:00:02.999808","MEAN_MOTION":15.7196626,"ECCENTRICITY":0.00010753,"INCLINATION":53.0465,"RA_OF_ASC_NODE":276.9224,"ARG_OF_PERICENTER":50.1756,"MEAN_ANOMALY":209.8955,"EPHEMERIS_TYPE":0,"CLASSIFICATION_TYPE":"U","NORAD_CAT_ID":46749,"ELEMENT_SET_NO":999,"REV_AT_EPOCH":580,"BSTAR":0.00055147557,"MEAN_MOTION_DOT":0.00073486,"MEAN_MOTION_DDOT":0},{"OBJECT_NAME":"STARLINK-11723 [DTC]","OBJECT_ID":"2025-107M","EPOCH":"2026-03-09T12:58:58.379808","MEAN_MOTION":15.70846732,"ECCENTRICITY":7.924e-5,"INCLINATION":43,"RA_OF_ASC_NODE":99.2166,"ARG_OF_PERICENTER":282.4874,"MEAN_ANOMALY":77.5905,"EPHEMERIS_TYPE":0,"CLASSIFICATION_TYPE":"U","NORAD_CAT_ID":64075,"ELEMENT_SET_NO":999,"REV_AT_EPOCH":4727,"BSTAR":0.0017678993,"MEAN_MOTION_DOT":0.00232937,"MEAN_MOTION_DDOT":0}]
